[
    {
        "Altitude(m)": 617710.6537712831,
        "Argument of Periapsis(deg)": 0.0,
        "Eccentricity": 0.0,
        "Inclination(deg)": 60.0,
        "Latitude(deg)": -41.10269834160612,
        "Longitude(deg)": 24.96674728612147,
        "Mean Anomaly(deg)": -49.09089999999992,
        "RAAN(deg)": 155.0,
        "Satellite Name": "Test1 701",
        "Satellite Number": 701,
        "Semi-Major Axis(m)": 6980739.136638005,
        "Time(s)": 0
    },
    {
        "Altitude(m)": 617517.951797755,
        "Argument of Periapsis(deg)": 0.00010418945913296404,
        "Eccentricity": 0.0,
        "Inclination(deg)": 60.0,
        "Latitude(deg)": -40.63690412470387,
        "Longitude(deg)": 25.46353926013915,
        "Mean Anomaly(deg)": -48.470793854538066,
        "RAAN(deg)": 154.99957995086027,
        "Satellite Name": "Test1 701",
        "Satellite Number": 701,
        "Semi-Major Axis(m)": 6980739.136638005,
        "Time(s)": 10
    }
]